STARLINK-4703           
1 53855U 22114AP  26016.68082729  .00000841  00000+0  70931-4 0  9999
2 53855  53.2162 167.3428 0001792  93.5870 266.5327 15.08825920185127
STARLINK-4795           
1 53856U 22114AQ  26016.71027539  .00001215  00000+0  94429-4 0  9996
2 53856  53.2174 157.5504 0001138  95.6732 264.4390 15.08843174185264
STARLINK-4809           
1 53857U 22114AR  26016.73136876 -.00001039  00000+0 -47185-4 0  9997
2 53857  53.2178 166.9451 0001362  83.4585 276.6562 15.08832190185132
STARLINK-4798           
1 53858U 22114AS  26016.65507136  .00000409  00000+0  43771-4 0  9995
2 53858  53.2166 157.9080 0001199  84.5616 275.5513 15.08843521185250
STARLINK-4790           
1 53859U 22114AT  26016.67111804  .00000844  00000+0  71128-4 0  9991
2 53859  53.2171 162.2974 0001291  92.2082 267.9058 15.08836104185195
STARLINK-4799           
1 53860U 22114AU  26016.64770124  .00000450  00000+0  46371-4 0  9991
2 53860  53.2167 157.8609 0001166  89.5672 270.5454 15.08843309185018
STARLINK-4781           
1 53861U 22114AV  26016.65138838  .00000024  00000+0  19612-4 0  9998
2 53861  53.2172 157.8893 0001065  84.1482 275.9632 15.08840558185254
STARLINK-4788           
1 53863U 22114AX  26016.70657518  .00000682  00000+0  60936-4 0  9992
2 53863  53.2169 157.5186 0001180  90.2056 269.9071 15.08842158185266
STARLINK-4779           
1 53864U 22114AY  26016.66235581  .00000734  00000+0  64173-4 0  9995
2 53864  53.2160 157.2464 0001156  86.8237 273.2888 15.08840756185265
STARLINK-4762           
1 53866U 22114BA  26016.71947653  .00000118  00000+0  25516-4 0  9997
2 53866  53.2177 137.6312 0001169  85.4108 274.7017 15.08839637185542
STARLINK-4793           
1 53867U 22114BB  26016.57501694 -.00000346  00000+0 -36723-5 0  9991
2 53867  53.2175 148.1351 0001187  94.2388 265.8740 15.08840389185381
STARLINK-4789           
1 53868U 22114BC  26016.62376008 -.00000145  00000+0  89848-5 0  9999
2 53868  53.2178 137.7657 0001211  88.1792 271.9339 15.08839366185539
STARLINK-4810           
1 53869U 22114BD  26016.73689230  .00000330  00000+0  38828-4 0  9992
2 53869  53.2171 147.0145 0001169  83.0346 277.0780 15.08838515185419
STARLINK-4732           
1 53870U 22114BE  26016.62744209  .00000206  00000+0  31029-4 0  9998
2 53870  53.2179 137.7740 0001139  88.1317 271.9805 15.08837983185539
STARLINK-4740           
1 53871U 22114BF  26016.59795662 -.00002496  00000+0 -13878-3 0  9990
2 53871  53.2167 137.5874 0001133  79.9126 280.1994 15.08849706185530
STARLINK-5028           
1 53886U 22119A   26016.90532730  .00001526  00000+0  11393-3 0  9992
2 53886  53.2163 196.8217 0001284  82.6361 277.4777 15.08846639183864
