[{"OBJECT_NAME":"STARLINK-4703","OBJECT_ID":"2022-114AP","EPOCH":"2026-01-16T16:20:23.477856","MEAN_MOTION":15.0882592,"ECCENTRICITY":0.0001792,"INCLINATION":53.2162,"RA_OF_ASC_NODE":167.3428,"ARG_OF_PERICENTER":93.587,"MEAN_ANOMALY":266.5327,"EPHEMERIS_TYPE":0,"CLASSIFICATION_TYPE":"U","NORAD_CAT_ID":53855,"ELEMENT_SET_NO":999,"REV_AT_EPOCH":18512,"BSTAR":7.0931323e-5,"MEAN_MOTION_DOT":8.41e-6,"MEAN_MOTION_DDOT":0},{"OBJECT_NAME":"STARLINK-4795","OBJECT_ID":"2022-114AQ","EPOCH":"2026-01-16T17:02:47.793696","MEAN_MOTION":15.08843174,"ECCENTRICITY":0.00011385,"INCLINATION":53.2174,"RA_OF_ASC_NODE":157.5504,"ARG_OF_PERICENTER":95.6732,"MEAN_ANOMALY":264.439,"EPHEMERIS_TYPE":0,"CLASSIFICATION_TYPE":"U","NORAD_CAT_ID":53856,"ELEMENT_SET_NO":999,"REV_AT_EPOCH":18526,"BSTAR":9.4429012e-5,"MEAN_MOTION_DOT":1.215e-5,"MEAN_MOTION_DDOT":0},{"OBJECT_NAME":"STARLINK-4809","OBJECT_ID":"2022-114AR","EPOCH":"2026-01-16T17:33:10.260864","MEAN_MOTION":15.0883219,"ECCENTRICITY":0.00013626,"INCLINATION":53.2178,"RA_OF_ASC_NODE":166.9451,"ARG_OF_PERICENTER":83.4585,"MEAN_ANOMALY":276.6562,"EPHEMERIS_TYPE":0,"CLASSIFICATION_TYPE":"U","NORAD_CAT_ID":53857,"ELEMENT_SET_NO":999,"REV_AT_EPOCH":18513,"BSTAR":-4.7185275e-5,"MEAN_MOTION_DOT":-1.039e-5,"MEAN_MOTION_DDOT":0},{"OBJECT_NAME":"STARLINK-4798","OBJECT_ID":"2022-114AS","EPOCH":"2026-01-16T15:43:18.165504","MEAN_MOTION":15.08843521,"ECCENTRICITY":0.00011999,"INCLINATION":53.2166,"RA_OF_ASC_NODE":157.908,"ARG_OF_PERICENTER":84.5616,"MEAN_ANOMALY":275.5513,"EPHEMERIS_TYPE":0,"CLASSIFICATION_TYPE":"U","NORAD_CAT_ID":53858,"ELEMENT_SET_NO":999,"REV_AT_EPOCH":18525,"BSTAR":4.377091e-5,"MEAN_MOTION_DOT":4.09e-6,"MEAN_MOTION_DDOT":0},{"OBJECT_NAME":"STARLINK-4790","OBJECT_ID":"2022-114AT","EPOCH":"2026-01-16T16:06:24.598656","MEAN_MOTION":15.08836104,"ECCENTRICITY":0.0001291,"INCLINATION":53.2171,"RA_OF_ASC_NODE":162.2974,"ARG_OF_PERICENTER":92.2082,"MEAN_ANOMALY":267.9058,"EPHEMERIS_TYPE":0,"CLASSIFICATION_TYPE":"U","NORAD_CAT_ID":53859,"ELEMENT_SET_NO":999,"REV_AT_EPOCH":18519,"BSTAR":7.1127715e-5,"MEAN_MOTION_DOT":8.44e-6,"MEAN_MOTION_DDOT":0},{"OBJECT_NAME":"STARLINK-4799","OBJECT_ID":"2022-114AU","EPOCH":"2026-01-16T15:32:41.387136","MEAN_MOTION":15.08843309,"ECCENTRICITY":0.00011666,"INCLINATION":53.2167,"RA_OF_ASC_NODE":157.8609,"ARG_OF_PERICENTER":89.5672,"MEAN_ANOMALY":270.5454,"EPHEMERIS_TYPE":0,"CLASSIFICATION_TYPE":"U","NORAD_CAT_ID":53860,"ELEMENT_SET_NO":999,"REV_AT_EPOCH":18501,"BSTAR":4.6370877e-5,"MEAN_MOTION_DOT":4.5e-6,"MEAN_MOTION_DDOT":0},{"OBJECT_NAME":"STARLINK-4781","OBJECT_ID":"2022-114AV","EPOCH":"2026-01-16T15:37:59.956032","MEAN_MOTION":15.08840558,"ECCENTRICITY":0.00010659,"INCLINATION":53.2172,"RA_OF_ASC_NODE":157.8893,"ARG_OF_PERICENTER":84.1482,"MEAN_ANOMALY":275.9632,"EPHEMERIS_TYPE":0,"CLASSIFICATION_TYPE":"U","NORAD_CAT_ID":53861,"ELEMENT_SET_NO":999,"REV_AT_EPOCH":18525,"BSTAR":1.9611911e-5,"MEAN_MOTION_DOT":2.4e-7,"MEAN_MOTION_DDOT":0},{"OBJECT_NAME":"STARLINK-4788","OBJECT_ID":"2022-114AX","EPOCH":"2026-01-16T16:57:28.095552","MEAN_MOTION":15.08842158,"ECCENTRICITY":0.00011803,"INCLINATION":53.2169,"RA_OF_ASC_NODE":157.5186,"ARG_OF_PERICENTER":90.2056,"MEAN_ANOMALY":269.9071,"EPHEMERIS_TYPE":0,"CLASSIFICATION_TYPE":"U","NORAD_CAT_ID":53863,"ELEMENT_SET_NO":999,"REV_AT_EPOCH":18526,"BSTAR":6.0936237e-5,"MEAN_MOTION_DOT":6.82e-6,"MEAN_MOTION_DDOT":0},{"OBJECT_NAME":"STARLINK-4779","OBJECT_ID":"2022-114AY","EPOCH":"2026-01-16T15:53:47.541984","MEAN_MOTION":15.08840756,"ECCENTRICITY":0.00011569,"INCLINATION":53.216,"RA_OF_ASC_NODE":157.2464,"ARG_OF_PERICENTER":86.8237,"MEAN_ANOMALY":273.2888,"EPHEMERIS_TYPE":0,"CLASSIFICATION_TYPE":"U","NORAD_CAT_ID":53864,"ELEMENT_SET_NO":999,"REV_AT_EPOCH":18526,"BSTAR":6.4173016e-5,"MEAN_MOTION_DOT":7.34e-6,"MEAN_MOTION_DDOT":0},{"OBJECT_NAME":"STARLINK-4762","OBJECT_ID":"2022-114BA","EPOCH":"2026-01-16T17:16:02.772192","MEAN_MOTION":15.08839637,"ECCENTRICITY":0.00011692,"INCLINATION":53.2177,"RA_OF_ASC_NODE":137.6312,"ARG_OF_PERICENTER":85.4108,"MEAN_ANOMALY":274.7017,"EPHEMERIS_TYPE":0,"CLASSIFICATION_TYPE":"U","NORAD_CAT_ID":53866,"ELEMENT_SET_NO":999,"REV_AT_EPOCH":18554,"BSTAR":2.5515511e-5,"MEAN_MOTION_DOT":1.18e-6,"MEAN_MOTION_DDOT":0},{"OBJECT_NAME":"STARLINK-4793","OBJECT_ID":"2022-114BB","EPOCH":"2026-01-16T13:48:01.463616","MEAN_MOTION":15.08840389,"ECCENTRICITY":0.00011874,"INCLINATION":53.2175,"RA_OF_ASC_NODE":148.1351,"ARG_OF_PERICENTER":94.2388,"MEAN_ANOMALY":265.874,"EPHEMERIS_TYPE":0,"CLASSIFICATION_TYPE":"U","NORAD_CAT_ID":53867,"ELEMENT_SET_NO":999,"REV_AT_EPOCH":18538,"BSTAR":-3.672314e-6,"MEAN_MOTION_DOT":-3.46e-6,"MEAN_MOTION_DDOT":0},{"OBJECT_NAME":"STARLINK-4789","OBJECT_ID":"2022-114BC","EPOCH":"2026-01-16T14:58:12.870912","MEAN_MOTION":15.08839366,"ECCENTRICITY":0.00012115,"INCLINATION":53.2178,"RA_OF_ASC_NODE":137.7657,"ARG_OF_PERICENTER":88.1792,"MEAN_ANOMALY":271.9339,"EPHEMERIS_TYPE":0,"CLASSIFICATION_TYPE":"U","NORAD_CAT_ID":53868,"ELEMENT_SET_NO":999,"REV_AT_EPOCH":18553,"BSTAR":8.984847e-6,"MEAN_MOTION_DOT":-1.45e-6,"MEAN_MOTION_DDOT":0},{"OBJECT_NAME":"STARLINK-4810","OBJECT_ID":"2022-114BD","EPOCH":"2026-01-16T17:41:07.494720","MEAN_MOTION":15.08838515,"ECCENTRICITY":0.00011692,"INCLINATION":53.2171,"RA_OF_ASC_NODE":147.0145,"ARG_OF_PERICENTER":83.0346,"MEAN_ANOMALY":277.078,"EPHEMERIS_TYPE":0,"CLASSIFICATION_TYPE":"U","NORAD_CAT_ID":53869,"ELEMENT_SET_NO":999,"REV_AT_EPOCH":18541,"BSTAR":3.8828098e-5,"MEAN_MOTION_DOT":3.3e-6,"MEAN_MOTION_DDOT":0},{"OBJECT_NAME":"STARLINK-4732","OBJECT_ID":"2022-114BE","EPOCH":"2026-01-16T15:03:30.996576","MEAN_MOTION":15.08837983,"ECCENTRICITY":0.00011397,"INCLINATION":53.2179,"RA_OF_ASC_NODE":137.774,"ARG_OF_PERICENTER":88.1317,"MEAN_ANOMALY":271.9805,"EPHEMERIS_TYPE":0,"CLASSIFICATION_TYPE":"U","NORAD_CAT_ID":53870,"ELEMENT_SET_NO":999,"REV_AT_EPOCH":18553,"BSTAR":3.10292e-5,"MEAN_MOTION_DOT":2.06e-6,"MEAN_MOTION_DDOT":0},{"OBJECT_NAME":"STARLINK-4740","OBJECT_ID":"2022-114BF","EPOCH":"2026-01-16T14:21:03.451968","MEAN_MOTION":15.08849706,"ECCENTRICITY":0.00011333,"INCLINATION":53.2167,"RA_OF_ASC_NODE":137.5874,"ARG_OF_PERICENTER":79.9126,"MEAN_ANOMALY":280.1994,"EPHEMERIS_TYPE":0,"CLASSIFICATION_TYPE":"U","NORAD_CAT_ID":53871,"ELEMENT_SET_NO":999,"REV_AT_EPOCH":18553,"BSTAR":-0.00013877658,"MEAN_MOTION_DOT":-2.496e-5,"MEAN_MOTION_DDOT":0},{"OBJECT_NAME":"STARLINK-5028","OBJECT_ID":"2022-119A","EPOCH":"2026-01-16T21:43:40.278720","MEAN_MOTION":15.08846639,"ECCENTRICITY":0.00012847,"INCLINATION":53.2163,"RA_OF_ASC_NODE":196.8217,"ARG_OF_PERICENTER":82.6361,"MEAN_ANOMALY":277.4777,"EPHEMERIS_TYPE":0,"CLASSIFICATION_TYPE":"U","NORAD_CAT_ID":53886,"ELEMENT_SET_NO":999,"REV_AT_EPOCH":18386,"BSTAR":0.00011393278,"MEAN_MOTION_DOT":1.526e-5,"MEAN_MOTION_DDOT":0}]
